{"type": "FeatureCollection", "features": [ {"type": "Feature", "properties": {"norad_id": 30597, "name": "FENGYUN 1C DEB", "group": "fengyun-1c-debris", "lat": 21.711979820745317, "lon": 123.60257372196003, "alt_km": 561.1014427463497, "timestamp": "2025-12-27T12:55:14.782982+00:00", "meta": {"OBJECT_NAME": "FENGYUN 1C DEB", "OBJECT_ID": "1999-025AMC", "EPOCH": "2025-12-27T02:34:28.033824", "MEAN_MOTION": 14.93780766, "ECCENTRICITY": 0.00476198, "INCLINATION": 98.9394, "RA_OF_ASC_NODE": 299.5191, "ARG_OF_PERICENTER": 117.2396, "MEAN_ANOMALY": 243.3684, "EPHEMERIS_TYPE": 0, "CLASSIFICATION_TYPE": "U", "NORAD_CAT_ID": 30597, "ELEMENT_SET_NO": 999, "REV_AT_EPOCH": 98751, "BSTAR": 0.006107387, "MEAN_MOTION_DOT": 0.00066718, "MEAN_MOTION_DDOT": 0}, "tle": {"line1": "1 30597U 99025AMC 25361.10726891  .00066718  00000+0  61074-2 0  9997", "line2": "2 30597  98.9394 299.5191 0047619 117.2396 243.3684 14.93780766987511"}}, "geometry": {"type": "Point", "coordinates": [123.60257372196003, 21.711979820745317]}}, {"type": "Feature", "properties": {"norad_id": 30599, "name": "FENGYUN 1C DEB", "group": "fengyun-1c-debris", "lat": -59.61720112967739, "lon": 27.731929107436315, "alt_km": 616.1443182579833, "timestamp": "2025-12-27T12:55:14.782992+00:00", "meta": {"OBJECT_NAME": "FENGYUN 1C DEB", "OBJECT_ID": "1999-025AME", "EPOCH": "2025-12-25T23:58:56.283456", "MEAN_MOTION": 14.19753784, "ECCENTRICITY": 0.0301623, "INCLINATION": 98.6027, "RA_OF_ASC_NODE": 11.2705, "ARG_OF_PERICENTER": 306.3155, "MEAN_ANOMALY": 51.0514, "EPHEMERIS_TYPE": 0, "CLASSIFICATION_TYPE": "U", "NORAD_CAT_ID": 30599, "ELEMENT_SET_NO": 999, "REV_AT_EPOCH": 97355, "BSTAR": 0.00072165849, "MEAN_MOTION_DOT": 2.359e-05, "MEAN_MOTION_DDOT": 0}, "tle": {"line1": "1 30599U 99025AME 25359.99926254  .00002359  00000+0  72166-3 0  9994", "line2": "2 30599  98.6027  11.2705 0301623 306.3155  51.0514 14.19753784973558"}}, "geometry": {"type": "Point", "coordinates": [27.731929107436315, -59.61720112967739]}}, {"type": "Feature", "properties": {"norad_id": 30600, "name": "FENGYUN 1C DEB", "group": "fengyun-1c-debris", "lat": 63.997647552196284, "lon": 142.87076693399698, "alt_km": 854.1673509509983, "timestamp": "2025-12-27T12:55:14.783002+00:00", "meta": {"OBJECT_NAME": "FENGYUN 1C DEB", "OBJECT_ID": "1999-025AMF", "EPOCH": "2025-12-27T07:14:05.718048", "MEAN_MOTION": 14.076995, "ECCENTRICITY": 0.03262365, "INCLINATION": 98.3868, "RA_OF_ASC_NODE": 305.0461, "ARG_OF_PERICENTER": 205.5507, "MEAN_ANOMALY": 152.9227, "EPHEMERIS_TYPE": 0, "CLASSIFICATION_TYPE": "U", "NORAD_CAT_ID": 30600, "ELEMENT_SET_NO": 999, "REV_AT_EPOCH": 94637, "BSTAR": 0.0022180105, "MEAN_MOTION_DOT": 6.07e-05, "MEAN_MOTION_DDOT": 0}, "tle": {"line1": "1 30600U 99025AMF 25361.30145507  .00006070  00000+0  22180-2 0  9993", "line2": "2 30600  98.3868 305.0461 0326236 205.5507 152.9227 14.07699500946376"}}, "geometry": {"type": "Point", "coordinates": [142.87076693399698, 63.997647552196284]}}, {"type": "Feature", "properties": {"norad_id": 30602, "name": "FENGYUN 1C DEB", "group": "fengyun-1c-debris", "lat": -43.61205312657133, "lon": -73.70891855739346, "alt_km": 599.7898400729391, "timestamp": "2025-12-27T12:55:14.783013+00:00", "meta": {"OBJECT_NAME": "FENGYUN 1C DEB", "OBJECT_ID": "1999-025AMH", "EPOCH": "2025-12-27T07:14:12.173856", "MEAN_MOTION": 14.93428483, "ECCENTRICITY": 0.00144537, "INCLINATION": 99.0301, "RA_OF_ASC_NODE": 277.3051, "ARG_OF_PERICENTER": 83.2132, "MEAN_ANOMALY": 40.1433, "EPHEMERIS_TYPE": 0, "CLASSIFICATION_TYPE": "U", "NORAD_CAT_ID": 30602, "ELEMENT_SET_NO": 999, "REV_AT_EPOCH": 98022, "BSTAR": 0.0084093165, "MEAN_MOTION_DOT": 0.00089576, "MEAN_MOTION_DDOT": 0}, "tle": {"line1": "1 30602U 99025AMH 25361.30152979  .00089576  00000+0  84093-2 0  9999", "line2": "2 30602  99.0301 277.3051 0014453  83.2132  40.1433 14.93428483980228"}}, "geometry": {"type": "Point", "coordinates": [-73.70891855739346, -43.61205312657133]}}, {"type": "Feature", "properties": {"norad_id": 30603, "name": "FENGYUN 1C DEB", "group": "fengyun-1c-debris", "lat": -79.57521961974678, "lon": 149.40538220850982, "alt_km": 974.6694236052435, "timestamp": "2025-12-27T12:55:14.783023+00:00", "meta": {"OBJECT_NAME": "FENGYUN 1C DEB", "OBJECT_ID": "1999-025AMJ", "EPOCH": "2025-12-26T01:14:44.031264", "MEAN_MOTION": 13.84162657, "ECCENTRICITY": 0.01835248, "INCLINATION": 98.4086, "RA_OF_ASC_NODE": 21.5825, "ARG_OF_PERICENTER": 169.0636, "MEAN_ANOMALY": 249.6784, "EPHEMERIS_TYPE": 0, "CLASSIFICATION_TYPE": "U", "NORAD_CAT_ID": 30603, "ELEMENT_SET_NO": 999, "REV_AT_EPOCH": 95060, "BSTAR": 0.001210482, "MEAN_MOTION_DOT": 1.5e-05, "MEAN_MOTION_DDOT": 0}, "tle": {"line1": "1 30603U 99025AMJ 25360.05189851  .00001500  00000+0  12105-2 0  9996", "line2": "2 30603  98.4086  21.5825 0183524 169.0636 249.6784 13.84162657950609"}}, "geometry": {"type": "Point", "coordinates": [149.40538220850982, -79.57521961974678]}}, {"type": "Feature", "properties": {"norad_id": 30604, "name": "FENGYUN 1C DEB", "group": "fengyun-1c-debris", "lat": -44.903319677310826, "lon": -152.74372250261248, "alt_km": 837.6956339485096, "timestamp": "2025-12-27T12:55:14.783033+00:00", "meta": {"OBJECT_NAME": "FENGYUN 1C DEB", "OBJECT_ID": "1999-025AMK", "EPOCH": "2025-12-27T01:59:12.001056", "MEAN_MOTION": 14.23635289, "ECCENTRICITY": 0.02088668, "INCLINATION": 98.4009, "RA_OF_ASC_NODE": 35.2901, "ARG_OF_PERICENTER": 324.81, "MEAN_ANOMALY": 89.4088, "EPHEMERIS_TYPE": 0, "CLASSIFICATION_TYPE": "U", "NORAD_CAT_ID": 30604, "ELEMENT_SET_NO": 999, "REV_AT_EPOCH": 98043, "BSTAR": 0.00034969978, "MEAN_MOTION_DOT": 9.52e-06, "MEAN_MOTION_DDOT": 0}, "tle": {"line1": "1 30604U 99025AMK 25361.08277779  .00000952  00000+0  34970-3 0  9993", "line2": "2 30604  98.4009  35.2901 0208866 324.8100  89.4088 14.23635289980437"}}, "geometry": {"type": "Point", "coordinates": [-152.74372250261248, -44.903319677310826]}}, {"type": "Feature", "properties": {"norad_id": 30606, "name": "FENGYUN 1C DEB", "group": "fengyun-1c-debris", "lat": -51.190115181453976, "lon": -178.88972946205087, "alt_km": 823.304547746875, "timestamp": "2025-12-27T12:55:14.783044+00:00", "meta": {"OBJECT_NAME": "FENGYUN 1C DEB", "OBJECT_ID": "1999-025AMM", "EPOCH": "2025-12-27T00:37:15.017664", "MEAN_MOTION": 14.57731583, "ECCENTRICITY": 0.02143151, "INCLINATION": 98.0961, "RA_OF_ASC_NODE": 10.8051, "ARG_OF_PERICENTER": 92.8551, "MEAN_ANOMALY": 329.4941, "EPHEMERIS_TYPE": 0, "CLASSIFICATION_TYPE": "U", "NORAD_CAT_ID": 30606, "ELEMENT_SET_NO": 999, "REV_AT_EPOCH": 99450, "BSTAR": 0.00064562313, "MEAN_MOTION_DOT": 3.997e-05, "MEAN_MOTION_DDOT": 0}, "tle": {"line1": "1 30606U 99025AMM 25361.02586826  .00003997  00000+0  64562-3 0  9997", "line2": "2 30606  98.0961  10.8051 0214315  92.8551 329.4941 14.57731583994504"}}, "geometry": {"type": "Point", "coordinates": [-178.88972946205087, -51.190115181453976]}}, {"type": "Feature", "properties": {"norad_id": 30608, "name": "FENGYUN 1C DEB", "group": "fengyun-1c-debris", "lat": -26.679164745831248, "lon": -120.24503275145457, "alt_km": 798.0086934556402, "timestamp": "2025-12-27T12:55:14.783054+00:00", "meta": {"OBJECT_NAME": "FENGYUN 1C DEB", "OBJECT_ID": "1999-025AMP", "EPOCH": "2025-12-27T03:48:18.370080", "MEAN_MOTION": 14.2855764, "ECCENTRICITY": 0.00163451, "INCLINATION": 98.7088, "RA_OF_ASC_NODE": 63.7933, "ARG_OF_PERICENTER": 138.9468, "MEAN_ANOMALY": 275.5528, "EPHEMERIS_TYPE": 0, "CLASSIFICATION_TYPE": "U", "NORAD_CAT_ID": 30608, "ELEMENT_SET_NO": 999, "REV_AT_EPOCH": 97645, "BSTAR": 0.0013473529, "MEAN_MOTION_DOT": 3.341e-05, "MEAN_MOTION_DDOT": 0}, "tle": {"line1": "1 30608U 99025AMP 25361.15854595  .00003341  00000+0  13474-2 0  9992", "line2": "2 30608  98.7088  63.7933 0016345 138.9468 275.5528 14.28557640976455"}}, "geometry": {"type": "Point", "coordinates": [-120.24503275145457, -26.679164745831248]}}, {"type": "Feature", "properties": {"norad_id": 30609, "name": "FENGYUN 1C DEB", "group": "fengyun-1c-debris", "lat": -74.83013969419072, "lon": 63.69759397507245, "alt_km": 896.5983783066276, "timestamp": "2025-12-27T12:55:14.783065+00:00", "meta": {"OBJECT_NAME": "FENGYUN 1C DEB", "OBJECT_ID": "1999-025AMQ", "EPOCH": "2025-12-26T16:59:03.285888", "MEAN_MOTION": 14.11340545, "ECCENTRICITY": 0.0119994, "INCLINATION": 98.5696, "RA_OF_ASC_NODE": 276.6943, "ARG_OF_PERICENTER": 13.859, "MEAN_ANOMALY": 346.5829, "EPHEMERIS_TYPE": 0, "CLASSIFICATION_TYPE": "U", "NORAD_CAT_ID": 30609, "ELEMENT_SET_NO": 999, "REV_AT_EPOCH": 95925, "BSTAR": 0.0029129513, "MEAN_MOTION_DOT": 5.597e-05, "MEAN_MOTION_DDOT": 0}, "tle": {"line1": "1 30609U 99025AMQ 25360.70767692  .00005597  00000+0  29130-2 0  9995", "line2": "2 30609  98.5696 276.6943 0119994  13.8590 346.5829 14.11340545959254"}}, "geometry": {"type": "Point", "coordinates": [63.69759397507245, -74.83013969419072]}}, {"type": "Feature", "properties": {"norad_id": 30612, "name": "FENGYUN 1C DEB", "group": "fengyun-1c-debris", "lat": 59.460682610076105, "lon": -21.722683366838385, "alt_km": 470.8596668945447, "timestamp": "2025-12-27T12:55:14.783075+00:00", "meta": {"OBJECT_NAME": "FENGYUN 1C DEB", "OBJECT_ID": "1999-025AMT", "EPOCH": "2025-12-27T05:05:09.177792", "MEAN_MOTION": 15.32892748, "ECCENTRICITY": 0.00242273, "INCLINATION": 99.0811, "RA_OF_ASC_NODE": 353.6076, "ARG_OF_PERICENTER": 296.014, "MEAN_ANOMALY": 124.0905, "EPHEMERIS_TYPE": 0, "CLASSIFICATION_TYPE": "U", "NORAD_CAT_ID": 30612, "ELEMENT_SET_NO": 999, "REV_AT_EPOCH": 479, "BSTAR": 0.0039425369, "MEAN_MOTION_DOT": 0.00128308, "MEAN_MOTION_DDOT": 0}, "tle": {"line1": "1 30612U 99025AMT 25361.21191178  .00128308  00000+0  39425-2 0  9990", "line2": "2 30612  99.0811 353.6076 0024227 296.0140 124.0905 15.32892748  4791"}}, "geometry": {"type": "Point", "coordinates": [-21.722683366838385, 59.460682610076105]}}]}